[{"OBJECT_NAME":"IRIDIUM 33 DEB","OBJECT_ID":"1997-051DG","EPOCH":"2026-03-10T03:50:46.554720","MEAN_MOTION":14.35554006,"ECCENTRICITY":0.00839052,"INCLINATION":86.2005,"RA_OF_ASC_NODE":322.8125,"ARG_OF_PERICENTER":75.1408,"MEAN_ANOMALY":285.9062,"EPHEMERIS_TYPE":0,"CLASSIFICATION_TYPE":"U","NORAD_CAT_ID":34097,"ELEMENT_SET_NO":999,"REV_AT_EPOCH":88373,"BSTAR":0.0013888766,"MEAN_MOTION_DOT":4.181e-5,"MEAN_MOTION_DDOT":0},{"OBJECT_NAME":"IRIDIUM 33 DEB","OBJECT_ID":"1997-051DY","EPOCH":"2026-03-09T18:58:33.613248","MEAN_MOTION":14.43092723,"ECCENTRICITY":0.0052501,"INCLINATION":86.2086,"RA_OF_ASC_NODE":293.7384,"ARG_OF_PERICENTER":164.9077,"MEAN_ANOMALY":195.3705,"EPHEMERIS_TYPE":0,"CLASSIFICATION_TYPE":"U","NORAD_CAT_ID":34145,"ELEMENT_SET_NO":999,"REV_AT_EPOCH":88893,"BSTAR":0.00093752852,"MEAN_MOTION_DOT":3.217e-5,"MEAN_MOTION_DDOT":0},{"OBJECT_NAME":"IRIDIUM 33 DEB","OBJECT_ID":"1997-051DZ","EPOCH":"2026-03-10T02:38:35.227680","MEAN_MOTION":14.49738797,"ECCENTRICITY":0.00253302,"INCLINATION":86.2827,"RA_OF_ASC_NODE":311.2018,"ARG_OF_PERICENTER":298.1497,"MEAN_ANOMALY":215.6491,"EPHEMERIS_TYPE":0,"CLASSIFICATION_TYPE":"U","NORAD_CAT_ID":34146,"ELEMENT_SET_NO":999,"REV_AT_EPOCH":89372,"BSTAR":0.00070255153,"MEAN_MOTION_DOT":2.735e-5,"MEAN_MOTION_DDOT":0},{"OBJECT_NAME":"IRIDIUM 33 DEB","OBJECT_ID":"1997-051EN","EPOCH":"2026-03-10T07:17:06.986112","MEAN_MOTION":14.38757732,"ECCENTRICITY":0.00284853,"INCLINATION":86.3553,"RA_OF_ASC_NODE":10.8965,"ARG_OF_PERICENTER":4.6885,"MEAN_ANOMALY":355.4574,"EPHEMERIS_TYPE":0,"CLASSIFICATION_TYPE":"U","NORAD_CAT_ID":34159,"ELEMENT_SET_NO":999,"REV_AT_EPOCH":89218,"BSTAR":0.00060144316,"MEAN_MOTION_DOT":1.874e-5,"MEAN_MOTION_DDOT":0},{"OBJECT_NAME":"IRIDIUM 33 DEB","OBJECT_ID":"1997-051ES","EPOCH":"2026-03-10T05:58:13.765152","MEAN_MOTION":14.45694196,"ECCENTRICITY":0.00197187,"INCLINATION":86.33,"RA_OF_ASC_NODE":324.8505,"ARG_OF_PERICENTER":204.0358,"MEAN_ANOMALY":279.1618,"EPHEMERIS_TYPE":0,"CLASSIFICATION_TYPE":"U","NORAD_CAT_ID":34350,"ELEMENT_SET_NO":999,"REV_AT_EPOCH":89557,"BSTAR":0.00038425444,"MEAN_MOTION_DOT":1.382e-5,"MEAN_MOTION_DDOT":0},{"OBJECT_NAME":"IRIDIUM 33 DEB","OBJECT_ID":"1997-051FJ","EPOCH":"2026-03-10T06:22:57.362880","MEAN_MOTION":14.55022729,"ECCENTRICITY":0.00185391,"INCLINATION":86.3728,"RA_OF_ASC_NODE":11.2109,"ARG_OF_PERICENTER":200.8465,"MEAN_ANOMALY":280.1894,"EPHEMERIS_TYPE":0,"CLASSIFICATION_TYPE":"U","NORAD_CAT_ID":34366,"ELEMENT_SET_NO":999,"REV_AT_EPOCH":89454,"BSTAR":0.0013773667,"MEAN_MOTION_DOT":5.967e-5,"MEAN_MOTION_DDOT":0},{"OBJECT_NAME":"IRIDIUM 33 DEB","OBJECT_ID":"1997-051FT","EPOCH":"2026-03-10T06:13:52.895136","MEAN_MOTION":14.18181954,"ECCENTRICITY":0.01014631,"INCLINATION":86.4346,"RA_OF_ASC_NODE":147.4491,"ARG_OF_PERICENTER":207.8332,"MEAN_ANOMALY":216.2922,"EPHEMERIS_TYPE":0,"CLASSIFICATION_TYPE":"U","NORAD_CAT_ID":34375,"ELEMENT_SET_NO":999,"REV_AT_EPOCH":87952,"BSTAR":0.00053138935,"MEAN_MOTION_DOT":1.166e-5,"MEAN_MOTION_DDOT":0},{"OBJECT_NAME":"IRIDIUM 33 DEB","OBJECT_ID":"1997-051FU","EPOCH":"2026-03-09T10:40:00.276096","MEAN_MOTION":14.64540863,"ECCENTRICITY":0.00225867,"INCLINATION":86.2985,"RA_OF_ASC_NODE":327.5125,"ARG_OF_PERICENTER":235.1089,"MEAN_ANOMALY":124.8001,"EPHEMERIS_TYPE":0,"CLASSIFICATION_TYPE":"U","NORAD_CAT_ID":34376,"ELEMENT_SET_NO":999,"REV_AT_EPOCH":89275,"BSTAR":0.0016499584,"MEAN_MOTION_DOT":8.806e-5,"MEAN_MOTION_DDOT":0},{"OBJECT_NAME":"IRIDIUM 33 DEB","OBJECT_ID":"1997-051GB","EPOCH":"2026-03-10T06:11:16.135296","MEAN_MOTION":15.02229778,"ECCENTRICITY":0.00101552,"INCLINATION":86.3924,"RA_OF_ASC_NODE":331.4407,"ARG_OF_PERICENTER":136.8817,"MEAN_ANOMALY":351.4706,"EPHEMERIS_TYPE":0,"CLASSIFICATION_TYPE":"U","NORAD_CAT_ID":34486,"ELEMENT_SET_NO":999,"REV_AT_EPOCH":90297,"BSTAR":0.0029505008,"MEAN_MOTION_DOT":0.00039116,"MEAN_MOTION_DDOT":0},{"OBJECT_NAME":"IRIDIUM 33 DEB","OBJECT_ID":"1997-051GC","EPOCH":"2026-03-09T04:29:47.501376","MEAN_MOTION":14.43379604,"ECCENTRICITY":0.00298618,"INCLINATION":86.3478,"RA_OF_ASC_NODE":335.1765,"ARG_OF_PERICENTER":201.1988,"MEAN_ANOMALY":311.7943,"EPHEMERIS_TYPE":0,"CLASSIFICATION_TYPE":"U","NORAD_CAT_ID":34487,"ELEMENT_SET_NO":999,"REV_AT_EPOCH":89495,"BSTAR":0.00022730241,"MEAN_MOTION_DOT":7.91e-6,"MEAN_MOTION_DDOT":0},{"OBJECT_NAME":"IRIDIUM 33 DEB","OBJECT_ID":"1997-051GD","EPOCH":"2026-02-22T01:06:52.109280","MEAN_MOTION":15.78089963,"ECCENTRICITY":0.00047702,"INCLINATION":86.3081,"RA_OF_ASC_NODE":269.542,"ARG_OF_PERICENTER":70.8002,"MEAN_ANOMALY":289.3788,"EPHEMERIS_TYPE":0,"CLASSIFICATION_TYPE":"U","NORAD_CAT_ID":34488,"ELEMENT_SET_NO":999,"REV_AT_EPOCH":90341,"BSTAR":0.0064727089,"MEAN_MOTION_DOT":0.01238203,"MEAN_MOTION_DDOT":0},{"OBJECT_NAME":"IRIDIUM 33 DEB","OBJECT_ID":"1997-051GH","EPOCH":"2026-03-09T15:59:55.618944","MEAN_MOTION":14.27771589,"ECCENTRICITY":0.0185278,"INCLINATION":86.4706,"RA_OF_ASC_NODE":299.4426,"ARG_OF_PERICENTER":319.7376,"MEAN_ANOMALY":95.9153,"EPHEMERIS_TYPE":0,"CLASSIFICATION_TYPE":"U","NORAD_CAT_ID":34492,"ELEMENT_SET_NO":999,"REV_AT_EPOCH":86298,"BSTAR":0.003725,"MEAN_MOTION_DOT":0.00011072,"MEAN_MOTION_DDOT":0},{"OBJECT_NAME":"IRIDIUM 33 DEB","OBJECT_ID":"1997-051GN","EPOCH":"2026-03-09T07:13:54.460992","MEAN_MOTION":14.277841,"ECCENTRICITY":0.00819651,"INCLINATION":86.282,"RA_OF_ASC_NODE":15.4051,"ARG_OF_PERICENTER":59.9722,"MEAN_ANOMALY":92.7588,"EPHEMERIS_TYPE":0,"CLASSIFICATION_TYPE":"U","NORAD_CAT_ID":34497,"ELEMENT_SET_NO":999,"REV_AT_EPOCH":88118,"BSTAR":0.0010149652,"MEAN_MOTION_DOT":2.617e-5,"MEAN_MOTION_DDOT":0},{"OBJECT_NAME":"IRIDIUM 33 DEB","OBJECT_ID":"1997-051GZ","EPOCH":"2026-03-10T00:42:47.629152","MEAN_MOTION":14.3913331,"ECCENTRICITY":0.00617757,"INCLINATION":86.3669,"RA_OF_ASC_NODE":65.589,"ARG_OF_PERICENTER":246.3475,"MEAN_ANOMALY":113.1232,"EPHEMERIS_TYPE":0,"CLASSIFICATION_TYPE":"U","NORAD_CAT_ID":34508,"ELEMENT_SET_NO":999,"REV_AT_EPOCH":88564,"BSTAR":0.0011913339,"MEAN_MOTION_DOT":3.787e-5,"MEAN_MOTION_DDOT":0},{"OBJECT_NAME":"IRIDIUM 33 DEB","OBJECT_ID":"1997-051HN","EPOCH":"2026-03-10T04:55:57.261504","MEAN_MOTION":14.64681648,"ECCENTRICITY":0.00041625,"INCLINATION":86.3829,"RA_OF_ASC_NODE":352.0108,"ARG_OF_PERICENTER":9.2254,"MEAN_ANOMALY":350.9035,"EPHEMERIS_TYPE":0,"CLASSIFICATION_TYPE":"U","NORAD_CAT_ID":34521,"ELEMENT_SET_NO":999,"REV_AT_EPOCH":89752,"BSTAR":0.0016446239,"MEAN_MOTION_DOT":8.773e-5,"MEAN_MOTION_DDOT":0},{"OBJECT_NAME":"IRIDIUM 33 DEB","OBJECT_ID":"1997-051HS","EPOCH":"2026-03-10T06:55:33.287808","MEAN_MOTION":14.43176456,"ECCENTRICITY":0.00052446,"INCLINATION":86.3774,"RA_OF_ASC_NODE":9.465,"ARG_OF_PERICENTER":137.0416,"MEAN_ANOMALY":15.0629,"EPHEMERIS_TYPE":0,"CLASSIFICATION_TYPE":"U","NORAD_CAT_ID":34525,"ELEMENT_SET_NO":999,"REV_AT_EPOCH":89350,"BSTAR":0.00049412675,"MEAN_MOTION_DOT":1.679e-5,"MEAN_MOTION_DDOT":0},{"OBJECT_NAME":"IRIDIUM 33 DEB","OBJECT_ID":"1997-051HW","EPOCH":"2026-03-10T06:49:19.014240","MEAN_MOTION":14.40739633,"ECCENTRICITY":0.00028452,"INCLINATION":86.3692,"RA_OF_ASC_NODE":358.0961,"ARG_OF_PERICENTER":284.8683,"MEAN_ANOMALY":75.2201,"EPHEMERIS_TYPE":0,"CLASSIFICATION_TYPE":"U","NORAD_CAT_ID":34529,"ELEMENT_SET_NO":999,"REV_AT_EPOCH":89402,"BSTAR":0.00024847579,"MEAN_MOTION_DOT":8.14e-6,"MEAN_MOTION_DDOT":0},{"OBJECT_NAME":"IRIDIUM 33 DEB","OBJECT_ID":"1997-051JF","EPOCH":"2026-03-09T22:08:14.882208","MEAN_MOTION":14.4328395,"ECCENTRICITY":0.0036239,"INCLINATION":86.2786,"RA_OF_ASC_NODE":327.3711,"ARG_OF_PERICENTER":38.521,"MEAN_ANOMALY":84.5497,"EPHEMERIS_TYPE":0,"CLASSIFICATION_TYPE":"U","NORAD_CAT_ID":34538,"ELEMENT_SET_NO":999,"REV_AT_EPOCH":89013,"BSTAR":0.00094112,"MEAN_MOTION_DOT":3.213e-5,"MEAN_MOTION_DDOT":0},{"OBJECT_NAME":"IRIDIUM 33 DEB","OBJECT_ID":"1997-051JH","EPOCH":"2026-03-10T01:06:41.284224","MEAN_MOTION":14.77420304,"ECCENTRICITY":0.00148496,"INCLINATION":86.306,"RA_OF_ASC_NODE":267.616,"ARG_OF_PERICENTER":221.8646,"MEAN_ANOMALY":297.4121,"EPHEMERIS_TYPE":0,"CLASSIFICATION_TYPE":"U","NORAD_CAT_ID":34540,"ELEMENT_SET_NO":999,"REV_AT_EPOCH":90309,"BSTAR":0.0015637698,"MEAN_MOTION_DOT":0.00011178,"MEAN_MOTION_DDOT":0},{"OBJECT_NAME":"IRIDIUM 33 DEB","OBJECT_ID":"1997-051JZ","EPOCH":"2026-03-09T23:04:01.013376","MEAN_MOTION":14.1342568,"ECCENTRICITY":0.0175402,"INCLINATION":86.3893,"RA_OF_ASC_NODE":246.6734,"ARG_OF_PERICENTER":22.5131,"MEAN_ANOMALY":338.3628,"EPHEMERIS_TYPE":0,"CLASSIFICATION_TYPE":"U","NORAD_CAT_ID":34648,"ELEMENT_SET_NO":999,"REV_AT_EPOCH":86192,"BSTAR":0.0032897,"MEAN_MOTION_DOT":7.178e-5,"MEAN_MOTION_DDOT":0},{"OBJECT_NAME":"IRIDIUM 33 DEB","OBJECT_ID":"1997-051KC","EPOCH":"2026-03-10T01:46:36.747552","MEAN_MOTION":14.27296264,"ECCENTRICITY":0.01318714,"INCLINATION":86.2762,"RA_OF_ASC_NODE":103.357,"ARG_OF_PERICENTER":282.3756,"MEAN_ANOMALY":76.2702,"EPHEMERIS_TYPE":0,"CLASSIFICATION_TYPE":"U","NORAD_CAT_ID":34651,"ELEMENT_SET_NO":999,"REV_AT_EPOCH":87141,"BSTAR":0.0027958597,"MEAN_MOTION_DOT":7.521e-5,"MEAN_MOTION_DDOT":0},{"OBJECT_NAME":"IRIDIUM 33 DEB","OBJECT_ID":"1997-051KD","EPOCH":"2026-03-09T02:45:12.358368","MEAN_MOTION":14.6296716,"ECCENTRICITY":0.00283586,"INCLINATION":86.3293,"RA_OF_ASC_NODE":301.5306,"ARG_OF_PERICENTER":5.2753,"MEAN_ANOMALY":151.038,"EPHEMERIS_TYPE":0,"CLASSIFICATION_TYPE":"U","NORAD_CAT_ID":34652,"ELEMENT_SET_NO":999,"REV_AT_EPOCH":89746,"BSTAR":0.00096237663,"MEAN_MOTION_DOT":4.978e-5,"MEAN_MOTION_DDOT":0},{"OBJECT_NAME":"IRIDIUM 33 DEB","OBJECT_ID":"1997-051KM","EPOCH":"2026-03-10T01:07:30.893376","MEAN_MOTION":14.55466275,"ECCENTRICITY":0.00126182,"INCLINATION":86.3821,"RA_OF_ASC_NODE":359.0385,"ARG_OF_PERICENTER":81.3216,"MEAN_ANOMALY":48.483,"EPHEMERIS_TYPE":0,"CLASSIFICATION_TYPE":"U","NORAD_CAT_ID":34690,"ELEMENT_SET_NO":999,"REV_AT_EPOCH":89364,"BSTAR":0.00054157908,"MEAN_MOTION_DOT":2.378e-5,"MEAN_MOTION_DDOT":0}]
